CALSPHERE 1             
1 00900U 64063C   26060.52626520  .00000722  00000+0  72731-3 0  9993
2 00900  90.2154  69.2646 0023419 257.4215 227.8432 13.76485325 56610
CALSPHERE 2             
1 00902U 64063E   26060.51337669  .00000056  00000+0  70942-4 0  9990
2 00902  90.2279  73.2457 0018702 173.9165 342.2194 13.52891183841706
LCS 1                   
1 01361U 65034C   26060.42844941  .00000009  00000+0  13414-3 0  9993
2 01361  32.1417  72.8750 0013179 100.4048 259.7935  9.89309890199215
TEMPSAT 1               
1 01512U 65065E   26060.47091745  .00000036  00000+0  54159-4 0  9998
2 01512  89.9921 212.5907 0069465 189.6884 236.1879 13.33588585945697
CALSPHERE 4A            
1 01520U 65065H   26060.41053120  .00000110  00000+0  19202-3 0  9998
2 01520  89.9049 123.5489 0070946  49.2952  69.8932 13.36257399948318
OPS 5712 (P/L 160)      
1 02826U 67053A   26060.43095050  .00008830  00000+0  12892-2 0  9991
2 02826  69.9182 302.0820 0004680 231.1881 128.8848 14.76020309 50323
OPS 5712 (P/L 153)      
1 02874U 67053H   26060.20754952  .00000058  00000+0  79918-4 0  9990
2 02874  69.9762 346.7493 0008831 318.5375  41.5060 13.96809849991709
RIGIDSPHERE 2 (LCS 4)   
1 05398U 71067E   26060.45855208  .00000910  00000+0  29121-3 0  9994
2 05398  87.6264   8.6909 0058005 229.0616 130.5555 14.37726602858403
COSMOS 2493 (SKRL-756 1)
1 39490U 13078A   26060.41780345  .00004368  00000+0  33545-3 0  9993
2 39490  82.4159   6.5713 0011385 245.9430 114.0604 15.01497764661781
COSMOS 2494 (SKRL-756 2)
1 39491U 13078B   26060.47343663  .00004850  00000+0  34728-3 0  9998
2 39491  82.4153 356.3531 0015156 204.3776 155.6735 15.04117014662611
